SAUDISAT 1C (SO-50)     
1 27607U 02058C   26155.41047091  .00001212  00000+0  15984-3 0  9997
2 27607  64.5504 168.5155 0075504 264.8060  94.4426 14.83018633262563
SAUDISAT 2              
1 28371U 04025F   26155.52750085  .00000359  00000+0  91213-4 0  9999
2 28371  98.5505 155.1824 0024226 338.4708  21.5468 14.56676307163900
SAUDISAT 3              
1 31118U 07012B   26155.74625948  .00000347  00000+0  64258-4 0  9990
2 31118  98.1450 106.1392 0013250 267.0879  92.8811 14.71418148 25910
PISAT                   
1 41784U 16059B   26154.99760220  .00001004  00000+0  17864-3 0  9991
2 41784  97.8177 156.0175 0027582 246.5558 113.2748 14.68959119517809
FLYING LAPTOP           
1 42831U 17042G   26155.92017758  .00004082  00000+0  32259-3 0  9997
2 42831  97.4642 311.9299 0018780 161.8339 198.3561 15.01062529484618
SALSAT                  
1 46495U 20068K   26154.99736177  .00008555  00000+0  30076-3 0  9992
2 46495  97.8850 157.2614 0009364 359.9507   0.1729 15.29597840313346
